NORAD_CAT_ID,OBJECT_NAME,OBJECT_TYPE,EPOCH,MEAN_MOTION,ECCENTRICITY,INCLINATION,RA_OF_ASC_NODE,ARG_OF_PERICENTER,MEAN_ANOMALY,BSTAR,MEAN_MOTION_DOT,MEAN_MOTION_DDOT,TLE_LINE0,TLE_LINE1,TLE_LINE2,SEMIMAJOR_AXIS,PERIOD,APOGEE,PERIGEE,DECAYED
49763.0,STARLINK-3198,PAYLOAD,2022-02-27 14:00:01,15.40450099,0.000265,53.2172,269.105,17.3391,66.7242,0.00080128,0.00032678,0.0,0 STARLINK-3198,1 49763U 21115AR  22058.58334491  .00032678  00000-0  80128-3 0  9991,2 49763  53.2172 269.1050 0002650  17.3391  66.7242 15.40450099  3648,6822.917,93.479,446.59,442.974,0.0
49763.0,STARLINK-3198,PAYLOAD,2022-02-27 22:00:00,15.40470187,0.0002918999999999,53.2169,267.5365,15.6606,117.9951,-0.00017158,-7.456e-05,0.0,0 STARLINK-3198,1 49763U 21115AR  22058.91667824 -.00007456  00000-0 -17158-3 0  9998,2 49763  53.2169 267.5365 0002919  15.6606 117.9951 15.40470187 14663,6822.858,93.478,446.714,442.731,0.0
49763.0,STARLINK-3198,PAYLOAD,2022-02-28 14:00:01,15.40493395,0.0002661,53.2163,264.3937,16.1795,216.6815,-0.00023053,-9.883e-05,0.0,0 STARLINK-3198,1 49763U 21115AR  22059.58334491 -.00009883  00000-0 -23053-3 0  9990,2 49763  53.2163 264.3937 0002661  16.1795 216.6815 15.40493395 14769,6822.7890000000025,93.477,446.47,442.839,0.0
49763.0,STARLINK-3198,PAYLOAD,2022-02-28 22:00:00,15.40454022,0.0002982,53.2161,262.8247,14.2025,268.285,0.0004295,0.00017295,0.0,0 STARLINK-3198,1 49763U 21115AR  22059.91667824  .00017295  00000-0  42950-3 0  9997,2 49763  53.2161 262.8247 0002982  14.2025 268.2850 15.40454022  3635,6822.905,93.479,446.805,442.736,0.0
49763.0,STARLINK-3198,PAYLOAD,2022-03-01 06:00:00,15.40467463,0.0002853,53.2155,261.2531,15.6401,316.4379,-0.00072072,-0.00029936,0.0,0 STARLINK-3198,1 49763U 21115AR  22060.25001157 -.00029936  00000-0 -72072-3 0  9992,2 49763  53.2155 261.2531 0002853  15.6401 316.4379 15.40467463 14870,6822.866,93.478,446.677,442.784,0.0
49763.0,STARLINK-3198,PAYLOAD,2022-03-01 14:00:01,15.40476207,0.0002758,53.2157,259.682,18.8864,2.7724,-0.00056337,-0.00023514,0.0,0 STARLINK-3198,1 49763U 21115AR  22060.58334491 -.00023514  00000-0 -56337-3 0  9990,2 49763  53.2157 259.6820 0002758  18.8864   2.7724 15.40476207  3644,6822.84,93.478,446.587,442.823,0.0
49763.0,STARLINK-3198,PAYLOAD,2022-03-01 22:00:01,15.4042868,0.0003036,53.2157,258.1132,18.8344,52.4842,0.00094546,0.00038635,0.0,0 STARLINK-3198,1 49763U 21115AR  22060.91668981  .00038635  00000-0  94546-3 0  9993,2 49763  53.2157 258.1132 0003036  18.8344  52.4842 15.40428680 14970,6822.98,93.48,446.917,442.774,0.0
49763.0,STARLINK-3198,PAYLOAD,2022-03-02 14:00:01,15.40457775,0.0002817,53.2159,254.9702,19.5646,150.85,0.00048586,0.00019626,0.0,0 STARLINK-3198,1 49763U 21115AR  22061.58334491  .00019626  00000-0  48586-3 0  9995,2 49763  53.2159 254.9702 0002817  19.5646 150.8500 15.40457775  3629,6822.894,93.479,446.681,442.837,0.0
49763.0,STARLINK-3198,PAYLOAD,2022-03-02 22:00:00,15.40458918,0.0003101,53.2161,253.4013,16.8994,203.1079,8.693e-05,3.172e-05,0.0,0 STARLINK-3198,1 49763U 21115AR  22061.91667824  .00003172  00000-0  86930-4 0  9996,2 49763  53.2161 253.4013 0003101  16.8994 203.1079 15.40458918 15125,6822.891,93.479,446.872,442.64,0.0
49763.0,STARLINK-3198,PAYLOAD,2022-03-03 14:00:01,15.40453391,0.0002912,53.2166,250.2582,16.7742,302.392,0.0002325,9.167e-05,0.0,0 STARLINK-3198,1 49763U 21115AR  22062.58334491  .00009167  00000-0  23250-3 0  9996,2 49763  53.2166 250.2582 0002912  16.7742 302.3920 15.40453391  3646,6822.906999999997,93.479,446.759,442.785,0.0
49763.0,STARLINK-3198,PAYLOAD,2022-03-03 22:00:00,15.40441859,0.0003208,53.2168,248.6895,15.5568,353.1953,0.0010183,0.00041678,0.0,0 STARLINK-3198,1 49763U 21115AR  22062.91667824  .00041678  00000-0  10183-2 0  9995,2 49763  53.2168 248.6895 0003208  15.5568 353.1953 15.40441859 15287,6822.941,93.48,446.995,442.617,0.0
49763.0,STARLINK-3198,PAYLOAD,2022-03-04 14:00:01,15.40492481,0.0003091,53.2173,245.5463,15.9924,92.0025,-0.00067482,-0.00028086,0.0,0 STARLINK-3198,1 49763U 21115AR  22063.58335648 -.00028086  00000-0 -67482-3 0  9990,2 49763  53.2173 245.5463 0003091  15.9924  92.0025 15.40492481 15387,6822.792,93.477,446.766,442.548,0.0
49763.0,STARLINK-3198,PAYLOAD,2022-03-04 22:00:00,15.40439948,0.0003356,53.2174,243.9775,13.3361,144.2241,0.0015722,0.00064761,0.0,0 STARLINK-3198,1 49763U 21115AR  22063.91667824  .00064761  00000-0  15722-2 0  9998,2 49763  53.2174 243.9775 0003356  13.3361 144.2241 15.40439948  3642,6822.946999999999,93.48,447.102,442.522,0.0
49763.0,STARLINK-3198,PAYLOAD,2022-03-05 06:00:00,15.40482763,0.0003222,53.2174,242.4051,13.0669,194.097,-0.00038524,-0.00016227,0.0,0 STARLINK-3198,1 49763U 21115AR  22064.25001157 -.00016227  00000-0 -38524-3 0  9999,2 49763  53.2174 242.4051 0003222  13.0669 194.0970 15.40482763 15483,6822.821,93.477,446.884,442.487,0.0
49763.0,STARLINK-3198,PAYLOAD,2022-03-05 14:00:01,15.40484509,0.0003223,53.2173,240.8349,15.0945,241.6749,-0.00046151,-0.00019353,0.0,0 STARLINK-3198,1 49763U 21115AR  22064.58334491 -.00019353  00000-0 -46151-3 0  9993,2 49763  53.2173 240.8349 0003223  15.0945 241.6749 15.40484509  3620,6822.815,93.477,446.879,442.481,0.0
49763.0,STARLINK-3198,PAYLOAD,2022-03-05 22:00:01,15.40453713,0.0003491,53.2171,239.2659,13.5428,292.9055,0.00040275,0.00016191,0.0,0 STARLINK-3198,1 49763U 21115AR  22064.91668981  .00016191  00000-0  40275-3 0  9990,2 49763  53.2171 239.2659 0003491  13.5428 292.9055 15.40453713  3655,6822.906,93.479,447.153,442.389,0.0
49763.0,STARLINK-3198,PAYLOAD,2022-03-06 06:00:00,15.40273556,0.0003355,53.2171,237.6848,13.3905,342.6333,0.0037103,0.00154346,0.0,0 STARLINK-3198,1 49763U 21115AR  22065.25001157  .00154346  00000-0  37103-2 0  9994,2 49763  53.2171 237.6848 0003355  13.3905 342.6333 15.40273556 15643,6823.438,93.49,447.593,443.014,0.0
49763.0,STARLINK-3198,PAYLOAD,2022-03-06 14:00:01,15.40481342,0.0003383,53.2172,236.1238,12.7558,32.7989,-0.00082399,-0.00034167,0.0,0 STARLINK-3198,1 49763U 21115AR  22065.58334491 -.00034167  00000-0 -82399-3 0  9998,2 49763  53.2172 236.1238 0003383  12.7558  32.7989 15.40481342 15692,6822.825,93.477,446.99800000000016,442.382,0.0
49763.0,STARLINK-3198,PAYLOAD,2022-03-06 22:00:00,15.40433123,0.000362,53.2167,234.5546,11.1336,84.0247,0.0011106,0.00045504,0.0,0 STARLINK-3198,1 49763U 21115AR  22065.91667824  .00045504  00000-0  11106-2 0  9996,2 49763  53.2167 234.5546 0003620  11.1336  84.0247 15.40433123  3611,6822.967,93.48,447.302,442.362,0.0
49763.0,STARLINK-3198,PAYLOAD,2022-03-07 12:00:00,15.40457237,0.0003368,53.217,231.8044,10.4439,81.4719,-0.00013654,-6.015e-05,0.0,0 STARLINK-3198,1 49763U 21115AR  22066.50001157 -.00006015  00000-0 -13654-3 0  9990,2 49763  53.2170 231.8044 0003368  10.4439  81.4719 15.40457237 15837,6822.896,93.479,447.059,442.463,0.0
49763.0,STARLINK-3198,PAYLOAD,2022-03-07 22:00:00,15.40406698,0.0003695,53.2168,229.8434,9.5299,234.3455,0.0012597,0.00051664,0.0,0 STARLINK-3198,1 49763U 21115AR  22066.91667824  .00051664  00000-0  12597-2 0  9996,2 49763  53.2168 229.8434 0003695   9.5299 234.3455 15.40406698 15897,6823.045,93.482,447.431,442.389,0.0
49763.0,STARLINK-3198,PAYLOAD,2022-03-08 14:00:01,15.40470601,0.0003548,53.2174,226.6925,11.1611,331.8291,-0.0013972,-0.00057462,0.0,0 STARLINK-3198,1 49763U 21115AR  22067.58334491 -.00057462  00000-0 -13972-2 0  9993,2 49763  53.2174 226.6925 0003548  11.1611 331.8291 15.40470601 16008,6822.856,93.478,447.142,442.301,0.0
49763.0,STARLINK-3198,PAYLOAD,2022-03-08 20:00:01,15.40458573,0.0003789,53.2175,225.5248,9.3952,280.8108,0.00045149,0.00018208,0.0,0 STARLINK-3198,1 49763U 21115AR  22067.83334491  .00018208  00000-0  45149-3 0  9996,2 49763  53.2175 225.5248 0003789   9.3952 280.8108 15.40458573 16047,6822.892,93.479,447.342,442.172,0.0
49763.0,STARLINK-3198,PAYLOAD,2022-03-08 22:00:00,15.40459604,0.0003827,53.2173,225.1322,8.1872,24.4175,0.00046311,0.00018689,0.0,0 STARLINK-3198,1 49763U 21115AR  22067.91667824  .00018689  00000-0  46311-3 0  9999,2 49763  53.2173 225.1322 0003827   8.1872  24.4175 15.40459604  3649,6822.889,93.479,447.365,442.143,0.0
49763.0,STARLINK-3198,PAYLOAD,2022-03-09 14:00:01,15.40473182,0.0003785,53.2178,221.9901,12.7022,119.0769,-0.0010787,-0.00044535,0.0,0 STARLINK-3198,1 49763U 21115AR  22068.58334491 -.00044535  00000-0 -10787-2 0  9992,2 49763  53.2178 221.9901 0003785  12.7022 119.0769 15.40473182  3661,6822.849,93.478,447.296,442.131,0.0
49763.0,STARLINK-3198,PAYLOAD,2022-03-09 16:00:00,15.40459043,0.0003889,53.2177,221.5981,12.8035,221.3789,-0.00062859,-0.00026171,0.0,0 STARLINK-3198,1 49763U 21115AR  22068.66667824 -.00026171  00000-0 -62859-3 0  9994,2 49763  53.2177 221.5981 0003889  12.8035 221.3789 15.40459043 16162,6822.891,93.479,447.409,442.102,0.0
49763.0,STARLINK-3198,PAYLOAD,2022-03-09 22:00:01,15.40433995,0.0004013,53.2176,220.4207,11.419,170.0142,0.00082734,0.00033745,0.0,0 STARLINK-3198,1 49763U 21115AR  22068.91668981  .00033745  00000-0  82734-3 0  9994,2 49763  53.2176 220.4207 0004013  11.4190 170.0142 15.40433995  3647,6822.965,93.48,447.568,442.091,0.0
49763.0,STARLINK-3198,PAYLOAD,2022-03-10 06:00:00,15.40418794,0.0003844,53.2177,218.8483,10.6963,220.2624,0.0016847,0.00069421,0.0,0 STARLINK-3198,1 49763U 21115AR  22069.25001157  .00069421  00000-0  16847-2 0  9999,2 49763  53.2177 218.8483 0003844  10.6963 220.2624 15.40418794 16259,6823.009,93.481,447.497,442.252,0.0
49763.0,STARLINK-3198,PAYLOAD,2022-03-10 14:00:01,15.40490046,0.0003954,53.2178,217.2791,11.2376,269.2797,-0.00082912,-0.00034389,0.0,0 STARLINK-3198,1 49763U 21115AR  22069.58334491 -.00034389  00000-0 -82912-3 0  9999,2 49763  53.2178 217.2791 0003954  11.2376 269.2797 15.40490046  3612,6822.799,93.477,447.362,441.966,0.0
49763.0,STARLINK-3198,PAYLOAD,2022-03-10 20:00:01,15.40451053,0.000416,53.2178,216.1023,9.4872,218.2455,0.00086399,0.00035285,0.0,0 STARLINK-3198,1 49763U 21115AR  22069.83334491  .00035285  00000-0  86399-3 0  9994,2 49763  53.2178 216.1023 0004160   9.4872 218.2455 15.40451053 16342,6822.9140000000025,93.479,447.617,441.941,0.0
